IRIDIUM 116             
1 43072U 17083C   25323.28152559  .00000377  00000+0  12770-3 0  9993
2 43072  86.3986  49.7374 0002117 106.1676 253.9753 14.34213686414089
IRIDIUM 130             
1 43073U 17083D   25323.59865417  .00000392  00000+0  13281-3 0  9997
2 43073  86.3992  49.8596 0001893 103.8562 256.2845 14.34213843414074
IRIDIUM 151             
1 43074U 17083E   25323.29420276  .00000412  00000+0  14006-3 0  9994
2 43074  86.3985  49.7850 0002122  98.6934 261.4502 14.34213826414056
IRIDIUM 134             
1 43075U 17083F   25323.54156999  .00000394  00000+0  13358-3 0  9999
2 43075  86.3989  49.6869 0001913 100.2963 259.8449 14.34215697414058
IRIDIUM 137             
1 43076U 17083G   25323.27518029  .00000363  00000+0  12244-3 0  9995
2 43076  86.3991  49.8866 0002460 106.0205 254.1262 14.34214554414087
IRIDIUM 141             
1 43077U 17083H   25323.26884084  .00000406  00000+0  13793-3 0  9990
2 43077  86.3984  49.7319 0002059  92.9758 267.1674 14.34214908414086
IRIDIUM 153             
1 43078U 17083J   25323.56986274  .00000349  00000+0  11747-3 0  9991
2 43078  86.3997  18.0971 0002052  86.6699 273.4732 14.34214413415235
IRIDIUM 131             
1 43079U 17083K   25323.53522909  .00000377  00000+0  12754-3 0  9990
2 43079  86.3990  49.7926 0002130  93.6442 266.4998 14.34216000414050
